{
  "norad_id": 61239,
  "name": "2024-174B",
  "history": [
    {
      "epoch": "2026-03-28T22:25:21.898272Z",
      "apogee_km": 551.4881764414022,
      "perigee_km": 523.0518844241215,
      "latitude_deg": 6.301672968382e-06,
      "longitude_deg": -69.11024916027804,
      "height_km": 553.7095291518219,
      "semi_major_axis_km": 6915.4070304327615,
      "eccentricity": 0.00205601,
      "inclination_deg": 97.4506,
      "raan_deg": 93.5786,
      "arg_perigee_deg": 200.0722,
      "mean_anomaly_deg": 159.9701,
      "mean_motion_rev_day": 15.09649548
    },
    {
      "epoch": "2026-03-29T04:47:09.139776Z",
      "apogee_km": 551.4966098492414,
      "perigee_km": 523.0190140137065,
      "latitude_deg": 4.438787463810185e-05,
      "longitude_deg": -164.5607177991259,
      "height_km": 553.7954769658606,
      "semi_major_axis_km": 6915.394811931474,
      "eccentricity": 0.002059,
      "inclination_deg": 97.4506,
      "raan_deg": 93.8363,
      "arg_perigee_deg": 199.1256,
      "mean_anomaly_deg": 160.9203,
      "mean_motion_rev_day": 15.09653549
    },
    {
      "epoch": "2026-03-30T04:38:50.967744Z",
      "apogee_km": 551.5465605950421,
      "perigee_km": 522.9141735484191,
      "latitude_deg": 4.427281662670709e-06,
      "longitude_deg": -162.49855703721,
      "height_km": 554.1017465689711,
      "semi_major_axis_km": 6915.367367071731,
      "eccentricity": 0.0020702,
      "inclination_deg": 97.4502,
      "raan_deg": 94.8027,
      "arg_perigee_deg": 195.624,
      "mean_anomaly_deg": 164.4353,
      "mean_motion_rev_day": 15.09662536
    },
    {
      "epoch": "2026-03-30T06:14:17.746368Z",
      "apogee_km": 551.5511577415982,
      "perigee_km": 522.9085381015293,
      "latitude_deg": 2.3079805102788125e-05,
      "longitude_deg": 173.63893233553392,
      "height_km": 554.1179044898232,
      "semi_major_axis_km": 6915.366847921563,
      "eccentricity": 0.00207094,
      "inclination_deg": 97.4502,
      "raan_deg": 94.8671,
      "arg_perigee_deg": 195.4479,
      "mean_anomaly_deg": 164.6121,
      "mean_motion_rev_day": 15.09662706
    },
    {
      "epoch": "2026-03-30T14:11:31.545312Z",
      "apogee_km": 551.5709433627462,
      "perigee_km": 522.8676505951271,
      "latitude_deg": -7.178489456855212e-05,
      "longitude_deg": 54.32699713984328,
      "height_km": 554.2103879451815,
      "semi_major_axis_km": 6915.356296978936,
      "eccentricity": 0.00207533,
      "inclination_deg": 97.45,
      "raan_deg": 95.1893,
      "arg_perigee_deg": 194.2961,
      "mean_anomaly_deg": 165.7683,
      "mean_motion_rev_day": 15.09666161
    },
    {
      "epoch": "2026-03-30T23:44:12.025248Z",
      "apogee_km": 551.5928810594114,
      "perigee_km": 522.8200731473589,
      "latitude_deg": -5.2260532481000676e-05,
      "longitude_deg": -88.84715321998502,
      "height_km": 554.3100922852288,
      "semi_major_axis_km": 6915.343477103385,
      "eccentricity": 0.00208036,
      "inclination_deg": 97.4498,
      "raan_deg": 95.5758,
      "arg_perigee_deg": 192.9576,
      "mean_anomaly_deg": 167.1121,
      "mean_motion_rev_day": 15.09670359
    },
    {
      "epoch": "2026-03-31T20:24:59.533920Z",
      "apogee_km": 551.652376604472,
      "perigee_km": 522.7159068190931,
      "latitude_deg": 4.235738756198023e-06,
      "longitude_deg": -39.05680397661292,
      "height_km": 554.5099027807727,
      "semi_major_axis_km": 6915.321141711782,
      "eccentricity": 0.0020922,
      "inclination_deg": 97.4497,
      "raan_deg": 96.4134,
      "arg_perigee_deg": 190.1218,
      "mean_anomaly_deg": 169.9593,
      "mean_motion_rev_day": 15.09677673
    },
    {
      "epoch": "2026-04-01T20:16:40.063296Z",
      "apogee_km": 551.7058122921671,
      "perigee_km": 522.6228210747231,
      "latitude_deg": 3.1551434867074964e-05,
      "longitude_deg": -36.98912572912996,
      "height_km": 554.6831983120207,
      "semi_major_axis_km": 6915.301316683444,
      "eccentricity": 0.0021028,
      "inclination_deg": 97.4496,
      "raan_deg": 97.3799,
      "arg_perigee_deg": 186.8612,
      "mean_anomaly_deg": 173.2333,
      "mean_motion_rev_day": 15.09684165
    },
    {
      "epoch": "2026-04-02T20:08:20.019840Z",
      "apogee_km": 551.7486649619432,
      "perigee_km": 522.5067765637259,
      "latitude_deg": -7.481533970506645e-05,
      "longitude_deg": -34.91913723687872,
      "height_km": 554.8003549324684,
      "semi_major_axis_km": 6915.264720762834,
      "eccentricity": 0.0021143,
      "inclination_deg": 97.4495,
      "raan_deg": 98.3463,
      "arg_perigee_deg": 183.5745,
      "mean_anomaly_deg": 176.5336,
      "mean_motion_rev_day": 15.09696149
    },
    {
      "epoch": "2026-04-02T23:19:13.251360Z",
      "apogee_km": 551.7410695667586,
      "perigee_km": 522.4858259375251,
      "latitude_deg": 2.067860816195514e-05,
      "longitude_deg": -82.64270520260568,
      "height_km": 554.7992615401068,
      "semi_major_axis_km": 6915.250447752142,
      "eccentricity": 0.00211527,
      "inclination_deg": 97.4495,
      "raan_deg": 98.4752,
      "arg_perigee_deg": 183.1229,
      "mean_anomaly_deg": 176.9872,
      "mean_motion_rev_day": 15.09700823
    },
    {
      "epoch": "2026-04-03T19:59:59.189280Z",
      "apogee_km": 551.7708803969026,
      "perigee_km": 522.3853652539683,
      "latitude_deg": -1.3167499630471211e-05,
      "longitude_deg": -32.84578274149267,
      "height_km": 554.8492218887776,
      "semi_major_axis_km": 6915.215122825435,
      "eccentricity": 0.0021247,
      "inclination_deg": 97.4498,
      "raan_deg": 99.3128,
      "arg_perigee_deg": 180.2102,
      "mean_anomaly_deg": 179.9122,
      "mean_motion_rev_day": 15.09712391
    },
    {
      "epoch": "2026-04-04T21:27:04.046112Z",
      "apogee_km": 551.8042219536892,
      "perigee_km": 522.2681342753267,
      "latitude_deg": 1.3023695910450333e-05,
      "longitude_deg": -54.630273576703715,
      "height_km": 554.8532925077383,
      "semi_major_axis_km": 6915.173178114508,
      "eccentricity": 0.0021356,
      "inclination_deg": 97.4502,
      "raan_deg": 100.3438,
      "arg_perigee_deg": 176.5203,
      "mean_anomaly_deg": 183.6179,
      "mean_motion_rev_day": 15.09726127
    },
    {
      "epoch": "2026-04-05T14:56:55.739040Z",
      "apogee_km": 551.8304857687999,
      "perigee_km": 522.2008545169319,
      "latitude_deg": 5.6542258988442456e-05,
      "longitude_deg": 42.89472765119319,
      "height_km": 554.8218284480726,
      "semi_major_axis_km": 6915.152670142866,
      "eccentricity": 0.00214237,
      "inclination_deg": 97.4504,
      "raan_deg": 101.0528,
      "arg_perigee_deg": 173.9225,
      "mean_anomaly_deg": 186.2269,
      "mean_motion_rev_day": 15.09732843
    },
    {
      "epoch": "2026-04-05T21:18:41.715648Z",
      "apogee_km": 551.8363558896372,
      "perigee_km": 522.1759239339272,
      "latitude_deg": 8.744806646215058e-05,
      "longitude_deg": -52.55045577453823,
      "height_km": 554.7997497855958,
      "semi_major_axis_km": 6915.143139911782,
      "eccentricity": 0.0021446,
      "inclination_deg": 97.4505,
      "raan_deg": 101.3105,
      "arg_perigee_deg": 172.9989,
      "mean_anomaly_deg": 187.1545,
      "mean_motion_rev_day": 15.09735964
    },
    {
      "epoch": "2026-04-06T06:51:20.628288Z",
      "apogee_km": 551.8638378629121,
      "perigee_km": 522.1280746377406,
      "latitude_deg": -1.3847649348700285e-05,
      "longitude_deg": 164.2821564898818,
      "height_km": 554.7768286205539,
      "semi_major_axis_km": 6915.132956250326,
      "eccentricity": 0.00215005,
      "inclination_deg": 97.4507,
      "raan_deg": 101.6972,
      "arg_perigee_deg": 171.587,
      "mean_anomaly_deg": 188.5724,
      "mean_motion_rev_day": 15.09739299
    },
    {
      "epoch": "2026-04-07T14:40:09.758784Z",
      "apogee_km": 551.944464424234,
      "perigee_km": 521.9832685978845,
      "latitude_deg": 1.426771707411516e-05,
      "longitude_deg": 47.059698797192446,
      "height_km": 554.6236174328653,
      "semi_major_axis_km": 6915.100866511059,
      "eccentricity": 0.00216636,
      "inclination_deg": 97.451,
      "raan_deg": 102.986,
      "arg_perigee_deg": 166.8943,
      "mean_anomaly_deg": 193.2854,
      "mean_motion_rev_day": 15.09749808
    },
    {
      "epoch": "2026-04-07T21:01:55.515936Z",
      "apogee_km": 551.9642312443566,
      "perigee_km": 521.9540969114923,
      "latitude_deg": -5.828050873235073e-05,
      "longitude_deg": -48.38445457171944,
      "height_km": 554.5855665571381,
      "semi_major_axis_km": 6915.096164077924,
      "eccentricity": 0.0021699,
      "inclination_deg": 97.451,
      "raan_deg": 103.2438,
      "arg_perigee_deg": 165.9756,
      "mean_anomaly_deg": 194.208,
      "mean_motion_rev_day": 15.09751348
    },
    {
      "epoch": "2026-04-08T14:31:46.161696Z",
      "apogee_km": 552.011698398137,
      "perigee_km": 521.8815725849181,
      "latitude_deg": -3.719023235941468e-05,
      "longitude_deg": 49.144723703534694,
      "height_km": 554.4538050873949,
      "semi_major_axis_km": 6915.083635491527,
      "eccentricity": 0.00217858,
      "inclination_deg": 97.4511,
      "raan_deg": 103.9526,
      "arg_perigee_deg": 163.4476,
      "mean_anomaly_deg": 196.7469,
      "mean_motion_rev_day": 15.09755451
    },
    {
      "epoch": "2026-04-09T20:45:07.780896Z",
      "apogee_km": 552.061756322868,
      "perigee_km": 521.7779563262811,
      "latitude_deg": 4.861021463410171e-05,
      "longitude_deg": -44.212272224567414,
      "height_km": 554.1486143512207,
      "semi_major_axis_km": 6915.056856324574,
      "eccentricity": 0.0021897,
      "inclination_deg": 97.4507,
      "raan_deg": 105.1769,
      "arg_perigee_deg": 159.3187,
      "mean_anomaly_deg": 200.8934,
      "mean_motion_rev_day": 15.09764221
    }
  ]
}